OBJECT_NAME,OBJECT_ID,EPOCH,MEAN_MOTION,ECCENTRICITY,INCLINATION,RA_OF_ASC_NODE,ARG_OF_PERICENTER,MEAN_ANOMALY,EPHEMERIS_TYPE,CLASSIFICATION_TYPE,NORAD_CAT_ID,ELEMENT_SET_NO,REV_AT_EPOCH,BSTAR,MEAN_MOTION_DOT,MEAN_MOTION_DDOT
EMISAT,2019-018A,2026-05-14T22:42:10.063584,14.43670128,.00176832,98.4670,193.9242,321.3431,38.6493,0,U,44078,999,37526,.9524334E-5,-.12E-6,0
JILIN-1 GAOFEN 3A,2019-032C,2026-05-14T12:13:39.442656,15.31875998,.00032252,44.9747,182.1728,111.6202,248.5026,0,U,44312,999,38267,.21624858E-3,.6481E-4,0
PROX-1,2019-036A,2026-05-14T18:39:35.513568,14.89785591,.00065997,23.9963,337.2774,7.7531,352.3070,0,U,44339,999,36848,.79414217E-3,.8091E-4,0
NPSAT1,2019-036B,2026-05-14T21:16:56.248032,14.74254360,.00078975,23.9985,74.5808,192.8471,167.1825,0,U,44340,999,36757,.47803876E-3,.3479E-4,0
FORMOSAT 7-3,2019-036E,2026-05-14T20:55:53.966496,15.09535462,.00004957,23.9995,47.7836,229.0881,130.9579,0,U,44343,999,37820,.16226065E-3,.3016E-4,0
FORMOSAT 7-1,2019-036L,2026-05-14T15:21:16.998912,14.96361817,.00009556,23.9972,258.5357,125.2534,234.8056,0,U,44349,999,37962,.12514633E-3,.1754E-4,0
FORMOSAT 7-4,2019-036M,2026-05-14T17:29:31.098624,14.96355855,.00011433,23.9990,320.0391,146.2041,213.8533,0,U,44350,999,37905,.13093617E-3,.1821E-4,0
FORMOSAT 7-2,2019-036N,2026-05-14T22:49:47.210304,14.96353307,.00007008,23.9989,12.8531,145.9568,214.0978,0,U,44351,999,37860,.12812697E-3,.1788E-4,0
FORMOSAT 7-6,2019-036Q,2026-05-14T11:37:30.077760,14.96363629,.00014411,23.9962,196.8189,73.7618,286.3041,0,U,44353,999,37676,.11632183E-3,.1652E-4,0
FORMOSAT 7-5,2019-036V,2026-05-14T15:52:57.386784,14.96362582,.00006393,23.9972,134.3708,127.8339,232.2220,0,U,44358,999,37732,.11392719E-3,.1623E-4,0
METEOR-M2 2,2019-038A,2026-05-14T22:44:56.565888,14.24356135,.00023155,98.9133,121.7452,99.2718,260.8722,0,U,44387,999,35656,.11158701E-4,-.2E-6,0
GLOBAL-4,2019-054E,2026-05-14T21:38:41.197344,15.61145643,.00037349,45.0070,67.9748,123.8891,236.2361,0,U,44499,999,37515,.39017913E-3,.33518E-3,0
ZY-1 02D,2019-059A,2026-05-14T23:01:50.704032,14.35448273,.0001019,98.3210,197.6176,157.9464,202.1766,0,U,44528,999,34957,-.21102099E-4,-.103E-5,0
TAURUS-1 (JINNIUZUO 1),2019-059C,2026-05-14T22:23:10.564224,14.71717766,.00092758,98.6384,297.7132,63.1752,297.0400,0,U,44530,999,35375,.58101989E-3,.3571E-4,0
ZHUHAI-1 03B,2019-060C,2026-05-14T20:57:25.642944,15.52178457,.00097427,97.5487,290.8998,83.8207,276.4155,0,U,44536,999,37115,.32282003E-3,.195E-3,0
ZHUHAI-1 03C,2019-060D,2026-05-14T21:58:24.125664,15.95775314,.00050342,97.5448,303.6288,308.6689,51.4136,0,U,44537,999,37194,.74861583E-3,.300164E-2,.37706223E-4
ZHUHAI-1 03D,2019-060E,2026-05-14T22:46:59.444832,15.47807928,.00081506,97.5349,283.3937,70.4029,289.8100,0,U,44538,999,37093,.39160885E-3,.20283E-3,0
ZHUHAI-1 03E,2019-060F,2026-05-14T22:05:42.876096,15.39932081,.00070772,97.5567,283.7534,136.3106,223.8701,0,U,44539,999,37064,.29024761E-3,.1148E-3,0
GAOFEN-7,2019-072A,2026-05-14T23:39:15.770880,15.21329678,.00175323,97.2449,197.6964,147.6853,212.5461,0,U,44703,999,36259,.12503107E-3,.2743E-4,0
JILIN-1 GAOFEN 2A,2019-075A,2026-05-14T21:45:14.046048,15.38367853,.0006456,97.4969,217.9439,188.7747,171.3386,0,U,44777,999,35976,.24982865E-3,.9372E-4,0
NINGXIA-1 1,2019-076A,2026-05-14T23:24:30.881952,14.02035493,.00111215,45.0070,328.2691,357.7298,2.3484,0,U,44779,999,33319,.46744448E-4,-.58E-6,0
NINGXIA-1 5,2019-076E,2026-05-14T22:02:40.960032,14.02083157,.00111498,45.0070,327.8784,347.4275,12.6279,0,U,44783,999,33310,-.14134116E-4,-.152E-5,0
KL-ALPHA A,2019-077A,2026-05-14T21:58:22.160064,13.56038947,.00104326,88.9260,226.1997,195.2240,164.8601,0,U,44785,999,32122,.7340537E-5,.17E-6,0
CARTOSAT-3,2019-081A,2026-05-14T23:05:20.560992,15.19206002,.0011052,97.4330,197.3581,267.1177,92.8792,0,U,44804,999,35842,.10917125E-3,.2232E-4,0
JILIN-1 GAOFEN 2B,2019-086A,2026-05-14T21:55:19.328160,15.20311352,.00156751,97.4895,207.1213,78.6586,281.6409,0,U,44836,999,35543,.18229685E-3,.3904E-4,0
TIANQIN 1 (CAS-6),2019-093A,2026-05-14T23:11:04.413120,14.95258131,.00117701,97.7796,219.0513,158.6889,201.4824,0,U,44879,999,34708,.10453587E-3,.1094E-4,0
ETRSS-1,2019-093B,2026-05-14T21:57:54.291744,14.95664892,.00120792,97.7814,219.4309,157.7869,202.3878,0,U,44880,999,34708,.16824619E-3,.1815E-4,0
