EMISAT                  
1 44078U 19018A   26134.94594981 -.00000012  00000+0  95243-5 0  9998
2 44078  98.4670 193.9242 0017683 321.3431  38.6493 14.43670128375263
JILIN-1 GAOFEN 3A       
1 44312U 19032C   26134.50948429  .00006481  00000+0  21625-3 0  9993
2 44312  44.9747 182.1728 0003225 111.6202 248.5026 15.31875998382674
PROX-1                  
1 44339U 19036A   26134.77749437  .00008091  00000+0  79414-3 0  9991
2 44339  23.9963 337.2774 0006599   7.7531 352.3070 14.89785591368488
NPSAT1                  
1 44340U 19036B   26134.88676213  .00003479  00000+0  47804-3 0  9999
2 44340  23.9985  74.5808 0007897 192.8471 167.1825 14.74254360367572
FORMOSAT 7-3            
1 44343U 19036E   26134.87215239  .00003016  00000+0  16226-3 0  9999
2 44343  23.9995  47.7836 0000495 229.0881 130.9579 15.09535462378204
FORMOSAT 7-1            
1 44349U 19036L   26134.63978008  .00001754  00000+0  12515-3 0  9993
2 44349  23.9972 258.5357 0000955 125.2534 234.8056 14.96361817379625
FORMOSAT 7-4            
1 44350U 19036M   26134.72883216  .00001821  00000+0  13094-3 0  9999
2 44350  23.9990 320.0391 0001143 146.2041 213.8533 14.96355855379055
FORMOSAT 7-2            
1 44351U 19036N   26134.95124086  .00001788  00000+0  12813-3 0  9998
2 44351  23.9989  12.8531 0000700 145.9568 214.0978 14.96353307378600
FORMOSAT 7-6            
1 44353U 19036Q   26134.48437590  .00001652  00000+0  11632-3 0  9993
2 44353  23.9962 196.8189 0001441  73.7618 286.3041 14.96363629376768
FORMOSAT 7-5            
1 44358U 19036V   26134.66177531  .00001623  00000+0  11393-3 0  9996
2 44358  23.9972 134.3708 0000639 127.8339 232.2220 14.96362582377326
METEOR-M2 2             
1 44387U 19038A   26134.94787692 -.00000020  00000+0  11159-4 0  9998
2 44387  98.9133 121.7452 0002315  99.2718 260.8722 14.24356135356566
GLOBAL-4                
1 44499U 19054E   26134.90186571  .00033518  00000+0  39018-3 0  9995
2 44499  45.0070  67.9748 0003734 123.8891 236.2361 15.61145643375158
ZY-1 02D                
1 44528U 19059A   26134.95961463 -.00000103  00000+0 -21102-4 0  9991
2 44528  98.3210 197.6176 0001019 157.9464 202.1766 14.35448273349575
TAURUS-1 (JINNIUZUO 1)  
1 44530U 19059C   26134.93276116  .00003571  00000+0  58102-3 0  9995
2 44530  98.6384 297.7132 0009275  63.1752 297.0400 14.71717766353756
ZHUHAI-1 03B            
1 44536U 19060C   26134.87321346  .00019500  00000+0  32282-3 0  9992
2 44536  97.5487 290.8998 0009742  83.8207 276.4155 15.52178457371151
ZHUHAI-1 03C            
1 44537U 19060D   26134.91555701  .00300164  37706-4  74862-3 0  9999
2 44537  97.5448 303.6288 0005034 308.6689  51.4136 15.95775314371945
ZHUHAI-1 03D            
1 44538U 19060E   26134.94929913  .00020283  00000+0  39161-3 0  9999
2 44538  97.5349 283.3937 0008150  70.4029 289.8100 15.47807928370935
ZHUHAI-1 03E            
1 44539U 19060F   26134.92063514  .00011480  00000+0  29025-3 0  9991
2 44539  97.5567 283.7534 0007077 136.3106 223.8701 15.39932081370643
GAOFEN-7                
1 44703U 19072A   26134.98559920  .00002743  00000+0  12503-3 0  9999
2 44703  97.2449 197.6964 0017532 147.6853 212.5461 15.21329678362599
JILIN-1 GAOFEN 2A       
1 44777U 19075A   26134.90641257  .00009372  00000+0  24983-3 0  9990
2 44777  97.4969 217.9439 0006456 188.7747 171.3386 15.38367853359761
NINGXIA-1 1             
1 44779U 19076A   26134.97535743 -.00000058  00000+0  46744-4 0  9995
2 44779  45.0070 328.2691 0011121 357.7298   2.3484 14.02035493333198
NINGXIA-1 5             
1 44783U 19076E   26134.91852963 -.00000152  00000+0 -14134-4 0  9994
2 44783  45.0070 327.8784 0011149 347.4275  12.6279 14.02083157333109
KL-ALPHA A              
1 44785U 19077A   26134.91553426  .00000017  00000+0  73405-5 0  9994
2 44785  88.9260 226.1997 0010432 195.2240 164.8601 13.56038947321224
CARTOSAT-3              
1 44804U 19081A   26134.96204353  .00002232  00000+0  10917-3 0  9996
2 44804  97.4330 197.3581 0011052 267.1177  92.8792 15.19206002358427
JILIN-1 GAOFEN 2B       
1 44836U 19086A   26134.91341815  .00003904  00000+0  18230-3 0  9999
2 44836  97.4895 207.1213 0015675  78.6586 281.6409 15.20311352355432
TIANQIN 1 (CAS-6)       
1 44879U 19093A   26134.96602330  .00001094  00000+0  10454-3 0  9999
2 44879  97.7796 219.0513 0011770 158.6889 201.4824 14.95258131347083
ETRSS-1                 
1 44880U 19093B   26134.91521171  .00001815  00000+0  16825-3 0  9998
2 44880  97.7814 219.4309 0012079 157.7869 202.3878 14.95664892347088
